FENGYUN 1C DEB          
1 35147U 99025DMB 26202.26619067  .00012439  00000+0  16153-2 0  9990
2 35147  99.4835 319.0842 0028305 239.1431 120.6991 14.80633243775616
FENGYUN 1C DEB          
1 35152U 99025DMG 26200.81903380  .00000390  00000+0  38691-3 0  9994
2 35152  99.8229  35.6114 0193865 168.1044 192.4781 13.76775997652076
FENGYUN 1C DEB          
1 35153U 99025DMH 26198.99850956  .00001150  00000+0  14437-3 0  9997
2 35153  98.8884 117.0951 0167521 122.8431 238.9030 14.75110649  4064
FENGYUN 1C DEB          
1 35154U 99025DMJ 26202.12584588  .00000642  00000+0  28084-3 0  9992
2 35154  99.4487 342.8301 0178992 141.7324 219.6711 14.19321216677030
FENGYUN 1C DEB          
1 35155U 99025DMK 26190.47807883  .00000670  00000+0  33475-3 0  9994
2 35155  98.4944 198.7602 0024797 183.7322 176.3674 14.19802052756753
FENGYUN 1C DEB          
1 35156U 99025DML 26201.40818015  .00000226  00000+0  14938-3 0  9990
2 35156  98.7715 187.4214 0034250 247.2489 112.5062 14.10879246671414
FENGYUN 1C DEB          
1 35160U 99025DMQ 26200.13063390  .00000237  00000+0  84365-4 0  9996
2 35160  99.1783 333.4856 0174400 322.2142  36.6900 14.36497486680660
FENGYUN 1C DEB          
1 35165U 99025DMV 26203.22019331  .00003416  00000+0  11880-2 0  9992
2 35165  98.8750 306.2435 0022724 127.6322 232.6929 14.35999208928970
FENGYUN 1C DEB          
1 35167U 99025DMX 26204.77841448  .00000812  00000+0  24294-3 0  9998
2 35167  98.4610 197.4352 0226151 264.0333  93.5037 14.32005593732114
FENGYUN 1C DEB          
1 35168U 99025DMY 26204.40475532  .00000283  00000+0  15233-3 0  9991
2 35168  98.2504  85.2293 0124228 202.4481 157.1231 14.15762074610747
FENGYUN 1C DEB          
1 35169U 99025DMZ 26189.96799062  .00001254  00000+0  23598-3 0  9994
2 35169  99.1125  99.0734 0148259 195.4544 164.2101 14.59947897688174
FENGYUN 1C DEB          
1 35171U 99025DNB 26198.68351613  .00000715  00000+0  51002-3 0  9994
2 35171  99.0223 350.3870 0137647  85.0682 276.6179 13.96024388915846
FENGYUN 1C DEB          
1 35173U 99025DND 26203.41316711 -.00000121  00000+0 -75484-4 0  9998
2 35173  99.7744 272.2582 0486586  33.8693 329.2527 13.38160058687936
FENGYUN 1C DEB          
1 35174U 99025DNE 26203.77646732  .00038960  00000+0  17358-2 0  9991
2 35174  98.9613 219.6939 0112360 172.4443 187.8511 15.15746306935113
FENGYUN 1C DEB          
1 35175U 99025DNF 26197.27201929  .00000295  00000+0  15112-3 0  9991
2 35175  98.5714 204.4602 0058332  16.3512 343.9531 14.21628192642976
FENGYUN 1C DEB          
1 35176U 99025DNG 26199.19538487  .00000251  00000+0  14295-3 0  9990
2 35176  98.5731 183.0730 0053997 148.6219 211.8197 14.17289773940082
FENGYUN 1C DEB          
1 35180U 99025DNL 26200.69325247  .00005148  00000+0  21614-2 0  9993
2 35180  99.7486  12.0116 0484380 168.1224 193.1850 13.77695530 30460
FENGYUN 1C DEB          
1 35191U 99025DNX 26201.70573265  .00000049  00000+0  70426-4 0  9995
2 35191  99.0372 182.6185 0102219 331.2985  28.2572 13.91313148909602
FENGYUN 1C DEB          
1 35194U 99025DPA 26185.02218459  .00006542  00000+0  11993-2 0  9991
2 35194  98.9447 289.7191 0111151 173.4000 186.8694 14.62193997683591
FENGYUN 1C DEB          
1 35195U 99025DPB 26202.59033635  .00003280  00000+0  68043-3 0  9990
2 35195  98.9898 319.1055 0101232 117.9948 243.1536 14.57762245941425
FENGYUN 1C DEB          
1 35196U 99025DPC 26203.98293252  .00001707  00000+0  64540-3 0  9998
2 35196  98.5267 216.4953 0214244  53.9699 337.2569 14.20611285922896
FENGYUN 1C DEB          
1 35199U 99025DPF 26195.60760679  .00000849  00000+0  58467-3 0  9999
2 35199  98.4489 332.7602 0113504 331.9345  27.5731 13.98768417951741
FENGYUN 1C DEB          
1 35200U 99025DPG 26204.82808946  .00000144  00000+0  22488-3 0  9999
2 35200  98.8941 160.9765 0350904 218.3450 169.1026 13.42094931688967
FENGYUN 1C DEB          
1 35201U 99025DPH 26201.89123910  .00000089  00000+0  73009-4 0  9999
2 35201  98.7043 209.2403 0006662 357.8042 120.4482 14.11134028901245
FENGYUN 1C DEB          
1 35202U 99025DPJ 26202.59007622  .00000809  00000+0  11256-2 0  9993
2 35202 100.0678 249.9292 0378992 199.9146 158.6839 13.35021457599239
FENGYUN 1C DEB          
1 35203U 99025DPK 26196.81820724  .00001098  00000+0  12344-2 0  9997
2 35203 102.0793 204.8408 0519360  49.9415 314.6072 13.27197513625037
FENGYUN 1C DEB          
1 35204U 99025DPL 26204.05098093  .00005561  00000+0  13736-2 0  9995
2 35204  98.9982  53.0080 0037598  18.1821 134.8224 14.52083631941539
FENGYUN 1C DEB          
1 35207U 99025DPP 26199.77250092  .00002509  00000+0  53531-3 0  9996
2 35207  98.6968 312.6373 0050140 307.7964  51.8699 14.59094167680802
FENGYUN 1C DEB          
1 35208U 99025DPQ 26204.28735902  .00000855  00000+0  58107-3 0  9994
2 35208  98.8898 222.3742 0101152 256.1506 102.8388 14.00330862936776
FENGYUN 1C DEB          
1 35210U 99025DPS 26204.53351227  .00004622  00000+0  15769-2 0  9991
2 35210  99.0938 225.2484 0045745 310.3631 202.5427 14.36335047933182
FENGYUN 1C DEB          
1 35217U 99025DPZ 26202.35999640  .00001372  00000+0  14760-2 0  9992
2 35217 101.8784 168.4133 0296868 144.1272 218.0196 13.58378768642145
FENGYUN 1C DEB          
1 35220U 99025DQC 26203.66426069  .00001784  00000+0  78965-3 0  9996
2 35220  99.0160 284.1833 0043461  34.6309 325.7686 14.24000832663401
FENGYUN 1C DEB          
1 35223U 99025DQF 26204.00251505  .00006314  00000+0  54692-3 0  9994
2 35223  98.9778 221.7723 0121329 334.8253  24.7078 14.92010608971933
FENGYUN 1C DEB          
1 35229U 99025DQM 26204.04512470  .00028513  00000+0  45125-2 0  9990
2 35229  98.4471 294.7416 0037433 233.7820 125.9923 14.71727390677657
FENGYUN 1C DEB          
1 35231U 99025DQP 26204.33844437 -.00000038  00000+0  25859-5 0  9994
2 35231  98.6893 246.8825 0037235 167.7019 192.5071 14.14544085946498
FENGYUN 1C DEB          
1 35233U 99025DQR 26203.77796027  .00004296  00000+0  12434-2 0  9995
2 35233  98.7730 314.4794 0037230 317.3111 195.9897 14.44632856943799
FENGYUN 1C DEB          
1 35234U 99025DQS 26201.79941094  .00002104  00000+0  35530-3 0  9991
2 35234  98.0482 230.8497 0095289 286.7046  72.3717 14.67559978975817
FENGYUN 1C DEB          
1 35236U 99025DQU 26200.63494261  .00000605  00000+0  17554-3 0  9994
2 35236  98.8198 141.4213 0082768 255.1236 104.0777 14.46375617  7248
FENGYUN 1C DEB          
1 35239U 99025DQX 26202.39167007  .00000947  00000+0  94526-3 0  9990
2 35239  99.2908   0.1846 0224917 155.1145 206.1049 13.69794669611513
FENGYUN 1C DEB          
1 35240U 99025DQY 26204.41783669  .00002141  00000+0  92660-3 0  9990
2 35240  99.3574 186.1271 0043142 239.6817 120.0089 14.25013014963345
FENGYUN 1C DEB          
1 35242U 99025DRA 26201.41240338  .00000012  00000+0  66275-4 0  9999
2 35242  99.9625 260.2930 0301174   4.2937  10.7100 13.52822956610976
FENGYUN 1C DEB          
1 35243U 99025DRB 26204.12899002  .00025611  00000+0  21883-2 0  9995
2 35243  98.8746 315.9354 0053493 258.4303 101.0906 14.96522891943178
FENGYUN 1C DEB          
1 35244U 99025DRC 26204.39136678  .00000753  00000+0  46662-3 0  9991
2 35244  98.8168 244.2945 0069556 251.6212 107.7384 14.07021450689524
FENGYUN 1C DEB          
1 35245U 99025DRD 26204.75653676  .00001632  00000+0  86373-3 0  9994
2 35245  99.0799 298.7197 0056277   4.6416 146.4869 14.14400255909287
FENGYUN 1C DEB          
1 36147U 99025DRU 26199.90144594  .00000130  00000+0  14720-3 0  9999
2 36147  98.5055 241.3058 0439680  62.6449 301.8726 13.47147134629345
FENGYUN 1C DEB          
1 36148U 99025DRV 26200.39131079  .00001697  00000+0  10945-2 0  9993
2 36148  98.4186  34.6044 0278281 108.6743 254.4841 13.86805310932735
FENGYUN 1C DEB          
1 36152U 99025DRZ 26203.37621028  .00001123  00000+0  56119-3 0  9995
2 36152  98.7390 244.7974 0052312 297.5293  62.0572 14.18124111672979
FENGYUN 1C DEB          
1 36153U 99025DSA 26203.73770012  .00006803  00000+0  16499-2 0  9990
2 36153  98.5904 303.7505 0032250  97.1526 263.3338 14.52939554681842
FENGYUN 1C DEB          
1 36160U 99025DSH 26196.74117530  .00000184  00000+0  10936-3 0  9997
2 36160  98.1244  24.0390 0132974 250.5320 108.1448 14.13425361630899
FENGYUN 1C DEB          
1 36162U 99025DSK 26199.13126337  .00003865  00000+0  18360-2 0  9997
2 36162  97.6211 327.9764 0248285 213.1028 145.4395 14.05028773735722
FENGYUN 1C DEB          
1 36163U 99025DSL 26204.60840234  .00015371  00000+0  27647-2 0  9999
2 36163  99.0777  75.9454 0034979 110.6946 249.8010 14.66322275924460
FENGYUN 1C DEB          
1 36167U 99025DSQ 26202.04043150  .00001798  00000+0  45597-3 0  9994
2 36167  98.8099 124.3066 0067370 300.6295  58.8267 14.50835820704720
FENGYUN 1C DEB          
1 36173U 99025DSW 26200.09938996  .00000179  00000+0  84047-4 0  9991
2 36173  98.2374 148.8552 0144874 262.1288  96.3427 14.25542882622018
FENGYUN 1C DEB          
1 36180U 99025DTD 26186.89988144  .00001688  00000+0  63386-3 0  9998
2 36180  98.4307 246.6150 0210819 153.3768 207.8423 14.21297797734974
FENGYUN 1C DEB          
1 36182U 99025DTF 26203.29589309  .00002051  00000+0  71540-3 0  9990
2 36182  99.0961 147.8118 0020148 146.0873 214.1604 14.36387654911365
FENGYUN 1C DEB          
1 36184U 99025DTH 26197.75170224  .00001553  00000+0  82930-3 0  9998
2 36184  98.5521 182.5083 0131951  83.7835 277.8349 14.10236830655571
FENGYUN 1C DEB          
1 36188U 99025DTM 26204.77547934  .00008719  00000+0  15718-2 0  9999
2 36188  98.5886 319.4563 0041416 333.7222  26.1879 14.66219947913152
FENGYUN 1C DEB          
1 36198U 99025DTX 26201.86344530  .00001344  00000+0  76777-3 0  9994
2 36198  98.6056 226.3437 0095434 209.3136 150.2661 14.08948094666869
FENGYUN 1C DEB          
1 36199U 99025DTY 26203.99868445  .00000455  00000+0  18334-3 0  9994
2 36199  98.2758 219.3848 0092730 127.9013 233.0600 14.29950707681562
FENGYUN 1C DEB          
1 36200U 99025DTZ 26201.03880581  .00010761  00000+0  18800-2 0  9993
2 36200  99.3815 310.0363 0030020  71.8799 288.5667 14.67835968765681
